STARLINK-3649           
1 51980U 22025AA  23294.53725762  .00002825  00000+0  19544-3 0  9993
2 51980  53.2184 345.3849 0001680  81.2640 278.8543 15.08851755 90786
STARLINK-3635           
1 51981U 22025AB  23294.41950421  .00003089  00000+0  21211-3 0  9990
2 51981  53.2175 345.9174 0001674  89.3027 270.8157 15.08841682 89672
STARLINK-3650           
1 51982U 22025AC  23294.46735167  .00012911  00000+0  82766-3 0  9990
2 51982  53.2184 345.6999 0001826  68.0500 292.0686 15.08845489 90780
STARLINK-3655           
1 51983U 22025AD  23294.41582089 -.00001619  00000+0 -83653-4 0  9991
2 51983  53.2182 345.9329 0001694 111.4069 248.7104 15.08844869 89675
STARLINK-3664           
1 51984U 22025AE  23294.44526269  .00000850  00000+0  71463-4 0  9993
2 51984  53.2176 345.8042 0001552  94.1563 265.9607 15.08843998 89681
STARLINK-3651           
1 51985U 22025AF  23294.47566441  .00009476  00000+0  61255-3 0  9993
2 51985  53.2170 345.6763 0001842  86.7550 273.3653 15.08846379 89689
STARLINK-3645           
1 51986U 22025AG  23294.42316825  .00009922  00000+0  64042-3 0  9991
2 51986  53.2171 345.7493 0001506  88.7036 271.4129 15.08850426 89685
STARLINK-3644           
1 51987U 22025AH  23294.45262665  .00000883  00000+0  73602-4 0  9997
2 51987  53.2195 345.7728 0001976 110.7742 249.3462 15.08840993 89686
STARLINK-3640           
1 51988U 22025AJ  23294.43422242  .00000097  00000+0  24198-4 0  9998
2 51988  53.2166 345.8494 0001587 109.4571 250.6592 15.08845443 89683
STARLINK-3642           
1 51989U 22025AK  23294.31646429 -.00000660  00000+0 -23398-4 0  9990
2 51989  53.2186 346.3790 0001785 114.9500 245.1677 15.08835152 89661
STARLINK-3657           
1 51990U 22025AL  23294.48390701  .00002610  00000+0  18200-3 0  9999
2 51990  53.2185 325.6252 0001756  95.0577 265.0616 15.08841821 91067
STARLINK-3652           
1 51991U 22025AM  23294.57405801  .00019806  00000+0  12584-2 0  9991
2 51991  53.2170 345.2246 0001762  92.9394 267.1800 15.08858293 89700
STARLINK-3643           
1 51992U 22025AN  23294.40662815 -.00000005  00000+0  17811-4 0  9996
2 51992  53.2192 325.9771 0001728  92.6002 267.5188 15.08843713 89522
STARLINK-3648           
1 51993U 22025AP  23294.43054568  .00001892  00000+0  13694-3 0  9998
2 51993  53.2168 345.8682 0001431  94.7310 265.3846 15.08839658 89681
STARLINK-3647           
1 51994U 22025AQ  23294.46918420  .00001375  00000+0  10449-3 0  9999
2 51994  53.2158 325.6899 0001537 100.7067 259.4098 15.08843273 89547
STARLINK-3636           
1 51995U 22025AR  23294.48022557  .00019656  00000+0  12488-2 0  9994
2 51995  53.2177 325.6412 0001828  81.7840 278.3359 15.08864226 91050
STARLINK-3538           
1 51996U 22025AS  23294.46550761  .00000625  00000+0  57364-4 0  9996
2 51996  53.2177 325.7107 0001657  87.7109 272.4072 15.08840625 91062
STARLINK-3589           
1 51997U 22025AT  23294.47654506 -.00001045  00000+0 -47573-4 0  9990
2 51997  53.2185 325.6572 0001783  87.7475 272.3721 15.08839755 89534
STARLINK-3618           
1 51998U 22025AU  23294.36982725  .00000317  00000+0  38029-4 0  9991
2 51998  53.2168 326.1407 0001527  91.9006 268.2161 15.08842703 89531
STARLINK-3667           
1 51999U 22025AV  23294.46182664  .00013573  00000+0  86916-3 0  9992
2 51999  53.2172 325.7191 0001558 100.3453 259.7715 15.08843778 89541
STARLINK-3653           
1 52000U 22025AW  23294.48757370  .00002481  00000+0  17392-3 0  9998
2 52000  53.2182 325.5225 0001940 101.6443 258.4767 15.08844681 89558
STARLINK-3659           
1 52001U 22025AX  23294.36710433  .00003438  00000+0  23394-3 0  9997
2 52001  53.2171 326.1633 0001678  89.2044 270.9140 15.08844847 89539
STARLINK-3668           
1 52002U 22025AY  23294.49862865  .00004256  00000+0  28526-3 0  9990
2 52002  53.2168 325.5989 0001586  97.8561 262.2611 15.08849080 89553
STARLINK-3654           
1 52003U 22025AZ  23294.49126180  .00001994  00000+0  14331-3 0  9999
2 52003  53.2170 325.5920 0001472  95.4668 264.6492 15.08850489 89556
S4 CROSSOVER & ASTRA R/B
1 52008U 22026A   23294.50989155  .00133267  00000+0  16475-2 0  9995
2 52008  97.4768 306.2783 0017458   5.1809 354.9625 15.59494745 89492
SPACEBEE-121            
1 52009U 22026B   23294.48931181  .00075480  00000+0  16164-2 0  9996
2 52009  97.5010 300.7199 0013010   4.2373 355.8983 15.44419555 89037
SPACEBEE-114            
1 52010U 22026C   23294.46155176  .00079706  00000+0  16264-2 0  9994
2 52010  97.5046 301.2438 0012353   5.2939 354.8438 15.45832746 89067
SPACEBEE-126            
1 52011U 22026D   23294.01256542  .00089582  00000+0  18282-2 0  9990
2 52011  97.5025 300.6607 0012379   4.5817 355.5543 15.45788098 88986
SPACEBEE-118            
1 52012U 22026E   23294.50409288  .00080627  00000+0  16070-2 0  9996
2 52012  97.5024 301.5709 0011883   6.7867 353.3541 15.46521586 89092
SPACEBEE-120            
1 52013U 22026F   23294.27776700  .00107610  00000+0  21732-2 0  9990
2 52013  97.5021 301.0564 0012549 359.7026   0.4213 15.46021457 89034
SPACEBEE-122            
1 52014U 22026G   23294.45908719  .00084763  00000+0  16646-2 0  9999
2 52014  97.5020 301.4269 0011776   3.2383 356.8940 15.46937254 89078
SPACEBEE-119            
1 52015U 22026H   23294.26145255  .00103489  00000+0  21796-2 0  9996
2 52015  97.5041 300.7001 0013106   5.1931 354.9450 15.44796453 89007
SPACEBEE-115            
1 52016U 22026J   23294.48958101  .00072495  00000+0  15648-2 0  9994
2 52016  97.5049 301.0512 0013092   3.0225 357.1100 15.44196777 89048
ORESAT0                 
1 52017U 22026K   23294.29185685  .00038351  00000+0  12866-2 0  9995
2 52017  97.5115 297.5317 0019431   8.1540 352.0012 15.30602024 88793
SPACEBEENZ-14           
1 52018U 22026L   23294.47634586  .00326976  00000+0  27773-2 0  9991
2 52018  97.4888 304.6776 0003992  17.0100 343.1294 15.68624581 89297
SPACEBEENZ-11           
1 52019U 22026M   23294.45987690  .00644577  00000+0  31094-2 0  9998
2 52019  97.4846 305.7521 0001755  71.0781 289.0677 15.80914340 89328
SPACEBEE-127            
1 52020U 22026N   23294.49054296  .00067709  00000+0  15301-2 0  9990
2 52020  97.5041 300.6553 0013818   2.4558 357.6755 15.42842137 88971
SPACEBEE-125            
1 52021U 22026P   23294.45801494  .00084358  00000+0  16617-2 0  9997
2 52021  97.5020 301.5633 0012826   0.6363 359.4900 15.46836320 88951
SPACEBEE-117            
1 52022U 22026Q   23294.48515257  .00069063  00000+0  15231-2 0  9997
2 52022  97.5041 300.8975 0013509   2.1859 357.9445 15.43567872 88904
SPACEBEE-116            
1 52023U 22026R   23294.51285294  .00071870  00000+0  15302-2 0  9995
2 52023  97.5050 301.1836 0012828   1.0328 359.0945 15.44608527 88921
SPACEBEE-113            
1 52024U 22026S   23294.25554377  .00109772  00000+0  22129-2 0  9996
2 52024  97.5026 301.1582 0013083 358.7287   1.3926 15.46057954 88901
SPACEBEE-112            
1 52025U 22026T   23294.51933880  .00122012  00000+0  18883-2 0  9990
2 52025  97.4988 302.7532 0009436   3.4346 356.6970 15.53582410 89035
SPACEBEENZ-13           
1 52026U 22026U   23294.49360869  .00364589  00000+0  27700-2 0  9994
2 52026  97.4863 304.9419 0003581  21.7840 338.3574 15.71226491 89090
SPACEBEE-123            
1 52027U 22026V   23294.46612049  .00072421  00000+0  15557-2 0  9990
2 52027  97.5030 300.7975 0013009   3.2712 356.8618 15.44340899 88810
SPACEBEENZ-12           
1 52028U 22026W   23294.48713026  .00191517  00000+0  23637-2 0  9996
2 52028  97.5045 303.9140 0007732   8.2119 351.9262 15.59489524 89095
SPACEBEE-124            
1 52029U 22026X   23294.47328936  .00072558  00000+0  15526-2 0  9999
2 52029  97.5024 300.7707 0013109   2.9382 357.1941 15.44453833 87532
YAOGAN-34 02            
1 52084U 22027A   23294.55612303 -.00000027  00000+0  10524-3 0  9991
2 52084  63.3978 171.8679 0048817 353.2790   6.7576 13.45280921 78464
STARLINK-3537           
1 52088U 22029A   23294.27043654  .00028485  00000+0  18014-2 0  9991
2 52088  53.2164 286.3218 0001787  89.5106 270.6091 15.08823844 90791
STARLINK-3722           
1 52089U 22029B   23294.56210507  .00011038  00000+0  71038-3 0  9999
2 52089  53.2171  35.2766 0001464  84.6366 275.4793 15.08847988 89295
STARLINK-3712           
1 52090U 22029C   23294.55106007  .00003144  00000+0  21548-3 0  9999
2 52090  53.2188  35.3216 0001498  86.4016 273.7147 15.08850017 89296
STARLINK-3713           
1 52091U 22029D   23294.55842257  .00013393  00000+0  85770-3 0  9998
2 52091  53.2173  35.2901 0001397  89.2238 270.8914 15.08850960 89293
STARLINK-3716           
1 52092U 22029E   23294.55474237  .00004752  00000+0  31639-3 0  9992
2 52092  53.2169  35.3074 0001262  70.2317 289.8811 15.08849132 89295
STARLINK-3673           
1 52093U 22029F   23294.54466668  .00007209  00000+0  47067-3 0  9993
2 52093  53.2166  35.3642 0001437  99.2652 260.8502 15.08833584 89291
STARLINK-3714           
1 52094U 22029G   23294.54738226  .00000982  00000+0  79789-4 0  9994
2 52094  53.2170  35.3416 0001761  92.8966 267.2228 15.08841514 89291
STARLINK-3701           
1 52095U 22029H   23294.47010311  .00001134  00000+0  89299-4 0  9992
2 52095  53.2178  35.6914 0001187  95.0418 265.0710 15.08839430 89280
STARLINK-3717           
1 52096U 22029J   23294.51518819  .00010386  00000+0  66964-3 0  9996
2 52096  53.2176  25.4893 0001799  90.8202 269.2996 15.08841412 89415
STARLINK-3665           
1 52098U 22029L   23294.54002309  .00001057  00000+0  84475-4 0  9996
2 52098  53.2187  35.3744 0001814  99.2359 260.8839 15.08841399 89291
STARLINK-3702           
1 52100U 22029N   23294.46642741  .00000097  00000+0  24192-4 0  9994
2 52100  53.2204  35.7029 0001345  78.1130 282.0013 15.08836836 89286
STARLINK-3703           
1 52101U 22029P   23294.54372601  .00000176  00000+0  29169-4 0  9996
2 52101  53.2160  35.5475 0001248  91.9632 268.1503 15.08841105 89287
